{"type":"FeatureCollection","features":[{"type":"Feature","properties":{"code":"180331201","nom":"Zone Rurale","commune":"18033"},"geometry":{"type":"MultiPolygon","coordinates":[[[[2.44280183,47.08712454],[2.44378662,47.08749752],[2.44470457,47.08770541],[2.44651985,47.08756556],[2.44743243,47.08739886],[2.4482847,47.0875857],[2.45029475,47.08825162],[2.45059898,47.08827827],[2.45109738,47.08813749],[2.45158006,47.08785707],[2.45195262,47.08777511],[2.45321874,47.08784143],[2.45425246,47.08703511],[2.45447729,47.08696144],[2.45615076,47.08676135],[2.45708019,47.08674951],[2.4573605,47.0866644],[2.45781288,47.08637751],[2.45954538,47.08633341],[2.46039347,47.08654624],[2.46096516,47.08684962],[2.4613338,47.08676221],[2.46139891,47.08657794],[2.46152979,47.08653984],[2.46209135,47.0866703],[2.46242761,47.08665746],[2.46269397,47.08691259],[2.46318703,47.08703913],[2.46386407,47.08695674],[2.46414349,47.08682749],[2.46461978,47.08704937],[2.46525303,47.08699648],[2.46536664,47.08737065],[2.46550326,47.0874181],[2.4657811,47.08731584],[2.4662441,47.08741702],[2.46647131,47.0875009],[2.46675517,47.08785514],[2.46740883,47.08773841],[2.46766911,47.08781163],[2.46798447,47.08804807],[2.46820029,47.08888727],[2.46854433,47.08915625],[2.46887235,47.08917847],[2.46923242,47.08835542],[2.46966401,47.08843483],[2.47036772,47.08684536],[2.47052793,47.08596737],[2.47037049,47.08334218],[2.47049627,47.08194273],[2.47091634,47.08090747],[2.47105825,47.08014554],[2.47095783,47.07909529],[2.47087175,47.07900306],[2.47094713,47.07897729],[2.4706135,47.07778732],[2.46964707,47.07581476],[2.46892099,47.07460047],[2.46901837,47.07381222],[2.46877422,47.07291076],[2.47126057,47.06932081],[2.47257943,47.06637643],[2.47128153,47.06382073],[2.46895289,47.06292682],[2.46952172,47.06242794],[2.4680639,47.06181891],[2.4663849,47.06052999],[2.46172042,47.05845917],[2.46074889,47.05811791],[2.4608201,47.05797959],[2.45939279,47.05566174],[2.45969916,47.0549312],[2.45923297,47.05452026],[2.45727054,47.05342524],[2.45452142,47.05158009],[2.45433717,47.05156302],[2.45236253,47.05052278],[2.45076495,47.05010644],[2.44903462,47.04927618],[2.45107889,47.04825141],[2.45403603,47.04630267],[2.45488171,47.04590601],[2.45501384,47.04573557],[2.45590227,47.04527788],[2.45640419,47.04487779],[2.45686303,47.04430732],[2.45764661,47.0430073],[2.46066503,47.03935432],[2.46055889,47.0393007],[2.46303301,47.03644282],[2.46407122,47.03507011],[2.46471575,47.03448247],[2.4604207,47.03204504],[2.4591046,47.03144555],[2.45838672,47.03120449],[2.45751631,47.03107256],[2.45721541,47.03127012],[2.45590899,47.03115323],[2.45213871,47.03143612],[2.45177338,47.03149291],[2.45114067,47.03181403],[2.45072026,47.03132945],[2.45018137,47.02877438],[2.44965269,47.02703058],[2.44966708,47.02626445],[2.44953063,47.02595858],[2.4492289,47.02597875],[2.44915246,47.02701829],[2.44934439,47.02717857],[2.44968332,47.02803012],[2.44929023,47.03145589],[2.44907725,47.03167996],[2.44675461,47.0333264],[2.44475341,47.03405149],[2.4444703,47.03366568],[2.44172985,47.03328692],[2.44012285,47.03358166],[2.43949593,47.03358942],[2.43895993,47.03371917],[2.43937777,47.03418938],[2.4391375,47.03437369],[2.43769915,47.03465481],[2.43727886,47.03467437],[2.43682588,47.03454431],[2.43608849,47.03491616],[2.43497299,47.03517541],[2.43440917,47.03519246],[2.43415832,47.0351273],[2.43377962,47.03544957],[2.43265126,47.03580238],[2.43252085,47.03580534],[2.43221614,47.03560306],[2.43000636,47.03672302],[2.42895333,47.03742009],[2.42898812,47.03774169],[2.42933745,47.03833315],[2.42598629,47.03926911],[2.42468878,47.03978666],[2.42496585,47.04023462],[2.42468498,47.04038988],[2.42402838,47.04058018],[2.42266315,47.04126844],[2.42054208,47.04181423],[2.41912154,47.04249407],[2.41887624,47.04289079],[2.41837015,47.0427982],[2.41847904,47.04283837],[2.41911515,47.04357715],[2.41925493,47.04380655],[2.42052051,47.04529578],[2.42109779,47.04612159],[2.42153582,47.04703674],[2.42198088,47.0481581],[2.42228879,47.04917344],[2.42249024,47.05028998],[2.42244119,47.05118018],[2.42254148,47.0522719],[2.42276423,47.05312294],[2.42305145,47.05373571],[2.42360575,47.05450467],[2.42412571,47.05503667],[2.42451742,47.05536545],[2.42518831,47.05582976],[2.42703444,47.05690674],[2.42692054,47.05708715],[2.42693083,47.0573582],[2.42710754,47.05759047],[2.42741426,47.05773785],[2.42787103,47.05777522],[2.42809691,47.05771872],[2.42826263,47.0576214],[2.42892092,47.05803611],[2.42975717,47.05869209],[2.43011573,47.0590477],[2.43058141,47.05961451],[2.43105418,47.06050998],[2.43122693,47.06136976],[2.43144301,47.06324534],[2.43157126,47.06370425],[2.43187374,47.06438369],[2.4383826,47.07478474],[2.44190769,47.08041272],[2.44247221,47.08152106],[2.44262296,47.08211151],[2.44263155,47.08268326],[2.4424634,47.08339372],[2.44222961,47.0836951],[2.44243073,47.08374829],[2.44251953,47.08382885],[2.44250343,47.08398363],[2.44235483,47.08407745],[2.44214117,47.08408992],[2.44228484,47.08460021],[2.44242641,47.0856966],[2.44269857,47.08652892],[2.44280183,47.08712454]]]]}},{"type":"Feature","properties":{"code":"180330101","nom":"Centre Ville 1","commune":"18033"},"geometry":{"type":"MultiPolygon","coordinates":[[[[2.39035279,47.07964092],[2.38979834,47.07995221],[2.38953369,47.08016149],[2.38944884,47.08032131],[2.38944779,47.08134589],[2.38926192,47.08193013],[2.38930461,47.08200148],[2.38846702,47.08565964],[2.38856791,47.08675949],[2.38998257,47.08662111],[2.39281197,47.08656758],[2.39285625,47.08649848],[2.3941954,47.08650911],[2.39426347,47.08655088],[2.3947522,47.08657865],[2.39535478,47.0865638],[2.39671439,47.08639444],[2.39701861,47.08618354],[2.39765977,47.08601762],[2.39837823,47.08577557],[2.39834584,47.08560704],[2.39841762,47.08543545],[2.39779224,47.08525122],[2.39793537,47.0850638],[2.39845925,47.08465687],[2.39863511,47.08437148],[2.39869799,47.08417013],[2.39862746,47.08399329],[2.39894218,47.08331157],[2.39913086,47.08270302],[2.40027488,47.08270896],[2.40068788,47.08148304],[2.40130768,47.07991156],[2.39978409,47.07990816],[2.39944639,47.07981637],[2.39930203,47.07964185],[2.39910422,47.07965163],[2.39837573,47.07938224],[2.39827043,47.07948793],[2.39812662,47.07950159],[2.39802689,47.07946235],[2.39796726,47.07937291],[2.39737217,47.07919694],[2.39687188,47.07914842],[2.3964295,47.07922444],[2.39586388,47.07947718],[2.39563126,47.07953539],[2.39504017,47.08041373],[2.39463141,47.08089867],[2.39410136,47.08056457],[2.39383697,47.08051727],[2.3938689,47.08025633],[2.39327224,47.0799858],[2.39280755,47.0798186],[2.392294,47.07989333],[2.39167711,47.07931477],[2.3913981,47.07892795],[2.39092046,47.07920814],[2.39035279,47.07964092]]]]}},{"type":"Feature","properties":{"code":"182130101","nom":"Le Bourg","commune":"18213"},"geometry":{"type":"MultiPolygon","coordinates":[[[[2.44077351,47.10018309],[2.43952094,47.10018242],[2.43924083,47.10049258],[2.43844779,47.10105864],[2.43690365,47.10359727],[2.43586348,47.10509125],[2.43546681,47.10494256],[2.43535969,47.1050987],[2.43476341,47.10638145],[2.43456164,47.10638317],[2.43451818,47.1065036],[2.43446222,47.10706063],[2.43463573,47.1071137],[2.43315504,47.10947972],[2.43493311,47.11019428],[2.43650834,47.11101586],[2.44575908,47.11682715],[2.44771218,47.11774762],[2.45405746,47.12166354],[2.45505147,47.12262977],[2.45754406,47.12031145],[2.46150807,47.11617498],[2.46284897,47.1144958],[2.46450893,47.11215365],[2.46563452,47.11248568],[2.4663362,47.11261136],[2.46742755,47.11254076],[2.46728477,47.11297586],[2.46734247,47.11327594],[2.46958442,47.11529126],[2.47055027,47.11605196],[2.47721802,47.12603444],[2.47780739,47.12619916],[2.47868873,47.12591053],[2.47888237,47.12593842],[2.47915101,47.12612239],[2.47990085,47.12592679],[2.48111408,47.1263752],[2.48209729,47.12742668],[2.48266062,47.12852128],[2.48263382,47.12883898],[2.48231639,47.12933723],[2.48243327,47.12980412],[2.48255857,47.12994423],[2.48245777,47.13096204],[2.48279333,47.13228701],[2.48273974,47.1326478],[2.48245791,47.13314531],[2.48155855,47.13433691],[2.48150055,47.13515414],[2.48166025,47.1352854],[2.48379424,47.13494831],[2.48625579,47.13415529],[2.48760444,47.13356886],[2.48944349,47.13260194],[2.49102681,47.13523694],[2.4912116,47.13550785],[2.49137455,47.13557699],[2.49200157,47.13512239],[2.50037965,47.13012069],[2.50080868,47.12994788],[2.50150676,47.12992478],[2.50356679,47.12898741],[2.50466491,47.12821064],[2.50619367,47.12678927],[2.51024173,47.12392906],[2.51310131,47.12219631],[2.5134023,47.12231462],[2.51412475,47.12177207],[2.51446933,47.1217375],[2.51471558,47.12134329],[2.5170247,47.12051206],[2.51866466,47.12164249],[2.51978838,47.12254028],[2.52084526,47.12339276],[2.52216769,47.12464967],[2.52243151,47.12464986],[2.52420706,47.12374695],[2.52433897,47.1237466],[2.52546361,47.12500446],[2.52566188,47.12495935],[2.53026619,47.12261301],[2.53013307,47.12229826],[2.53000117,47.12229862],[2.52960449,47.12180453],[2.52940611,47.1217146],[2.52723513,47.12275281],[2.52690668,47.12275327],[2.52578232,47.12176552],[2.5257161,47.12149605],[2.52604335,47.12118048],[2.52280505,47.11821683],[2.52148133,47.11682486],[2.52141554,47.11651038],[2.52187468,47.11619447],[2.52134403,47.11520552],[2.52094749,47.1147114],[2.51962764,47.11408381],[2.51870193,47.11318594],[2.51863535,47.11296148],[2.51929362,47.11264551],[2.5194908,47.11242035],[2.51948822,47.11197017],[2.52008013,47.11169893],[2.51981538,47.11107031],[2.51928506,47.11035145],[2.51888921,47.11008151],[2.51593951,47.10945968],[2.51436407,47.10882555],[2.51238378,47.10834365],[2.51089652,47.10788271],[2.51008377,47.10749663],[2.50761625,47.10680551],[2.50304212,47.10562993],[2.50175316,47.1054155],[2.50201714,47.10424622],[2.50228067,47.10426626],[2.50278753,47.1024948],[2.5039991,47.10050668],[2.49978396,47.10021122],[2.49811772,47.10017429],[2.49775674,47.10014301],[2.49741905,47.1000182],[2.49708384,47.10005276],[2.49641614,47.09996972],[2.49022724,47.09954106],[2.46440759,47.09779745],[2.46217352,47.09759621],[2.45576384,47.09714937],[2.45529555,47.09704363],[2.45510006,47.09707962],[2.45501565,47.09721337],[2.45510121,47.09748747],[2.45499282,47.09803707],[2.45495474,47.09919561],[2.45477687,47.10139968],[2.45401289,47.1011935],[2.45296372,47.10102649],[2.4518233,47.10101748],[2.45092597,47.10108975],[2.45084993,47.10117582],[2.45093834,47.10129869],[2.45092937,47.10166148],[2.4492091,47.10200803],[2.44892964,47.10213004],[2.44891322,47.10218849],[2.44666263,47.10255678],[2.44598212,47.10256973],[2.44472968,47.10229542],[2.44499252,47.10199507],[2.44515643,47.10169965],[2.44471135,47.101386],[2.44433523,47.10103486],[2.44403813,47.10082186],[2.44361316,47.10060554],[2.44269624,47.1002761],[2.44081786,47.10022922],[2.44077351,47.10018309]]]]}},{"type":"Feature","properties":{"code":"182050101","nom":"Rural","commune":"18205"},"geometry":{"type":"MultiPolygon","coordinates":[[[[2.37701657,47.0916776],[2.37518887,47.09160922],[2.3725772,47.0913934],[2.37178725,47.09107849],[2.37143151,47.09106125],[2.37119334,47.09068451],[2.37025271,47.09063168],[2.37064257,47.08896727],[2.37144411,47.0886232],[2.37393342,47.08858088],[2.37443066,47.08810279],[2.37418569,47.08683469],[2.37188058,47.08725345],[2.37164463,47.08725307],[2.37106477,47.08690148],[2.37078815,47.08688377],[2.36972107,47.08727951],[2.36876168,47.08804587],[2.36835341,47.08812647],[2.36769378,47.08772131],[2.36741769,47.08765858],[2.36718051,47.08810025],[2.36689065,47.0881995],[2.36525774,47.08749728],[2.36358296,47.08721797],[2.36289761,47.08665058],[2.36212053,47.08659588],[2.3604883,47.0869569],[2.35978974,47.08683959],[2.35853845,47.08686687],[2.35831422,47.08676839],[2.35781248,47.08617318],[2.35580947,47.08557051],[2.35534833,47.08555263],[2.35433548,47.08570544],[2.35217609,47.08561593],[2.35187081,47.08546206],[2.35007949,47.08512968],[2.34948717,47.08484094],[2.34898648,47.08471477],[2.34834004,47.08465171],[2.34751072,47.08466954],[2.34662957,47.08494007],[2.34665519,47.08521842],[2.34702529,47.08567878],[2.34694678,47.08595745],[2.34680245,47.08601155],[2.34595947,47.08584923],[2.34578697,47.08529094],[2.34482559,47.08500278],[2.34435139,47.08508383],[2.34385039,47.08530877],[2.34376001,47.08569541],[2.34353515,47.08597504],[2.3434832,47.08634478],[2.34357705,47.0870818],[2.34426195,47.08734408],[2.34426263,47.08750525],[2.34414388,47.08762252],[2.34352586,47.08760461],[2.34322213,47.08743272],[2.34096988,47.08749553],[2.34050795,47.08732543],[2.34031089,47.0870551],[2.34005978,47.08700055],[2.33962328,47.08712321],[2.33959102,47.08749666],[2.33925299,47.08775853],[2.3390638,47.08759899],[2.3393228,47.08711699],[2.33855859,47.08687403],[2.33821596,47.08686576],[2.33811106,47.08692819],[2.33800635,47.08740477],[2.33766455,47.08797273],[2.33633585,47.08850352],[2.33607141,47.08867486],[2.33580883,47.08901639],[2.33654707,47.08976431],[2.33681017,47.08980903],[2.33707447,47.08997081],[2.33702346,47.09036757],[2.33681967,47.09043033],[2.33625124,47.09012995],[2.33615583,47.0898485],[2.3356047,47.08974899],[2.33537994,47.08958834],[2.33503618,47.08956386],[2.33417513,47.08915555],[2.33385839,47.08918433],[2.33369084,47.08930221],[2.33377788,47.08983302],[2.33355918,47.09024862],[2.33327077,47.09033158],[2.33287406,47.09021765],[2.33218279,47.08972568],[2.33185331,47.08971837],[2.33140954,47.08989227],[2.33118333,47.08984955],[2.33067838,47.08942887],[2.33046756,47.08942134],[2.33028405,47.08954903],[2.32969406,47.08971397],[2.32918068,47.08965428],[2.32876896,47.08947632],[2.32862146,47.08925308],[2.32860589,47.08912694],[2.32888571,47.08888727],[2.32869108,47.0885314],[2.32855751,47.0884604],[2.32805699,47.08842778],[2.32767422,47.08878389],[2.327411,47.08927755],[2.32692734,47.08947822],[2.32668616,47.08915629],[2.32668758,47.08840901],[2.32643067,47.08787001],[2.32643566,47.08736494],[2.32619707,47.08725911],[2.32573936,47.08738789],[2.32528558,47.08793986],[2.32505013,47.08800421],[2.32480221,47.08822245],[2.32468832,47.08847478],[2.32500687,47.08861709],[2.3254394,47.08860521],[2.325745,47.08872944],[2.32580214,47.08900888],[2.32559205,47.08915351],[2.32496142,47.08919395],[2.3244112,47.08934019],[2.32396168,47.08923493],[2.32368667,47.08929994],[2.32356178,47.08948198],[2.3237506,47.08998368],[2.32346908,47.09046192],[2.32334595,47.09102931],[2.32308701,47.09128349],[2.32207832,47.09161341],[2.32144247,47.09143772],[2.32120023,47.09109777],[2.32097579,47.09101902],[2.32065948,47.09101266],[2.31991262,47.09127747],[2.31990342,47.0914845],[2.32033064,47.09189576],[2.32084621,47.09199153],[2.321461,47.09174574],[2.32158135,47.09182028],[2.32203956,47.09249462],[2.32179299,47.0928119],[2.32115128,47.09299631],[2.3203989,47.09296487],[2.31901856,47.09223738],[2.31870162,47.09217609],[2.31850557,47.09224966],[2.31852389,47.09257389],[2.31938876,47.09319662],[2.31978129,47.09385078],[2.31969576,47.09425543],[2.31922261,47.09434899],[2.3205226,47.09528489],[2.31929389,47.09549014],[2.31799703,47.09597589],[2.31935073,47.09704537],[2.32186371,47.09725281],[2.32886857,47.10149287],[2.3315184,47.10408139],[2.32935808,47.10581284],[2.33029339,47.10610007],[2.33135803,47.10627369],[2.33158019,47.10654238],[2.33302514,47.10742045],[2.33332446,47.10774269],[2.33337197,47.10795275],[2.33355799,47.10805286],[2.33354963,47.10819596],[2.33370191,47.108358],[2.33362751,47.10850973],[2.33388402,47.10866786],[2.33390554,47.1089543],[2.33426328,47.10913822],[2.33426927,47.11078858],[2.32879671,47.11203092],[2.32922515,47.11246917],[2.33003074,47.11439606],[2.33046435,47.11633069],[2.33047276,47.11671519],[2.33003949,47.11772376],[2.33011115,47.11800688],[2.3300457,47.11870966],[2.33097544,47.12031493],[2.33176024,47.1220175],[2.33039272,47.12294594],[2.33019608,47.123485],[2.32979977,47.12522845],[2.32942909,47.12798583],[2.32874394,47.13077828],[2.32843373,47.13460379],[2.32986089,47.13622636],[2.33014861,47.13674931],[2.33014669,47.1370104],[2.32978838,47.1374945],[2.32951625,47.13752083],[2.33123777,47.13861119],[2.33160776,47.13835403],[2.33212358,47.13825437],[2.33342027,47.13817452],[2.33405749,47.13775323],[2.3352577,47.13672205],[2.33660748,47.13714935],[2.33833121,47.13753286],[2.33880384,47.13772553],[2.34374318,47.13745114],[2.34855281,47.1368787],[2.3486873,47.13710454],[2.34906769,47.13739928],[2.34958616,47.13751384],[2.35106199,47.13734476],[2.36189931,47.13715654],[2.36526549,47.13656733],[2.37211785,47.13333563],[2.37264392,47.13302517],[2.37600984,47.13253919],[2.37956861,47.13363152],[2.3817051,47.13105812],[2.38381131,47.12950008],[2.38443406,47.12822313],[2.38488079,47.12676248],[2.3851946,47.12631308],[2.38614806,47.12529627],[2.38642195,47.12510685],[2.38545153,47.12460472],[2.38485345,47.12441968],[2.3843988,47.12403462],[2.38478393,47.12380799],[2.38494696,47.12350814],[2.38490495,47.12337467],[2.38460828,47.12324885],[2.38490825,47.12262291],[2.3850684,47.12141912],[2.38563323,47.12070006],[2.38602912,47.11975772],[2.38699186,47.11849246],[2.38737587,47.11812716],[2.38769475,47.1166451],[2.38818085,47.11565011],[2.38826105,47.11450981],[2.38856297,47.11335628],[2.38836111,47.11266556],[2.38798095,47.11223139],[2.38768992,47.11161312],[2.38780811,47.11142468],[2.38790552,47.1106275],[2.38787381,47.10958745],[2.38903408,47.10797839],[2.38973657,47.10742929],[2.38988288,47.10720138],[2.39063934,47.10735932],[2.39164242,47.10728087],[2.39182887,47.10723504],[2.39199036,47.10694688],[2.3905069,47.10694267],[2.38851323,47.1068124],[2.38796448,47.10752527],[2.3868497,47.10919128],[2.38582667,47.11113237],[2.38541736,47.11163798],[2.38482341,47.11272153],[2.38460156,47.11297784],[2.38397793,47.11353993],[2.38366494,47.11415409],[2.3835648,47.1142616],[2.38338082,47.11431914],[2.38326349,47.11431491],[2.38199682,47.11413439],[2.37990493,47.1141511],[2.37845657,47.1140596],[2.37767854,47.11405181],[2.37629703,47.11411009],[2.3751383,47.11702182],[2.37244091,47.11635897],[2.3721832,47.11617661],[2.37135326,47.11541582],[2.37107197,47.11522072],[2.36967786,47.11443615],[2.36791063,47.11330829],[2.3667912,47.11272505],[2.36589798,47.11208452],[2.36535075,47.11185374],[2.36520457,47.11183673],[2.36503919,47.11165755],[2.36448676,47.11130969],[2.365595,47.11059821],[2.36774158,47.10950525],[2.36877963,47.10869972],[2.3690689,47.1084339],[2.36902605,47.10837695],[2.36850388,47.10814901],[2.36665683,47.10721157],[2.36462981,47.1059985],[2.36276974,47.10505912],[2.36074375,47.10366232],[2.36052713,47.10369353],[2.36044362,47.10361924],[2.36044298,47.10356162],[2.36001402,47.10359706],[2.35840695,47.10390417],[2.35827912,47.10367658],[2.35826827,47.10348024],[2.35854493,47.10194941],[2.35838097,47.10021534],[2.35815461,47.09940378],[2.3576309,47.09820883],[2.35812167,47.09818364],[2.35927366,47.09799106],[2.36372897,47.097859],[2.36462116,47.09778107],[2.36695056,47.09747063],[2.36905296,47.09751453],[2.36936412,47.09762697],[2.36964661,47.09782298],[2.37160389,47.09674513],[2.37203677,47.09648098],[2.37237472,47.09621722],[2.37385737,47.09490356],[2.37860038,47.09517764],[2.37861962,47.09488153],[2.37873809,47.09466789],[2.37969854,47.09357823],[2.38011607,47.09326805],[2.38047373,47.09311871],[2.3809852,47.09300801],[2.38235522,47.09286948],[2.38287889,47.09284347],[2.3835272,47.09287033],[2.38397436,47.09157983],[2.3837199,47.09158208],[2.3825084,47.09158101],[2.38197051,47.09169789],[2.38161597,47.09169059],[2.38146924,47.09161057],[2.37701657,47.0916776]]]]}},{"type":"Feature","properties":{"code":"180330102","nom":"Centre Ville 2","commune":"18033"},"geometry":{"type":"MultiPolygon","coordinates":[[[[2.39360021,47.09114274],[2.39368949,47.09094063],[2.3937743,47.09090146],[2.39381764,47.09079905],[2.39455423,47.09012315],[2.39894252,47.08635652],[2.39950727,47.08606775],[2.40236965,47.08493825],[2.4026183,47.08474416],[2.40267301,47.08456438],[2.40267948,47.08433752],[2.40260055,47.08432361],[2.40253278,47.0838965],[2.402823,47.08149409],[2.4032232,47.08141873],[2.40326003,47.08118753],[2.40357063,47.08039503],[2.40360475,47.08017012],[2.40130768,47.07991156],[2.40068788,47.08148304],[2.40027488,47.08270896],[2.39913086,47.08270302],[2.39894218,47.08331157],[2.39862746,47.08399329],[2.39869799,47.08417013],[2.39863511,47.08437148],[2.39845925,47.08465687],[2.39793537,47.0850638],[2.39779224,47.08525122],[2.39841762,47.08543545],[2.39834584,47.08560704],[2.39837823,47.08577557],[2.39765977,47.08601762],[2.39701861,47.08618354],[2.39671439,47.08639444],[2.39535478,47.0865638],[2.3947522,47.08657865],[2.39426347,47.08655088],[2.3941954,47.08650911],[2.39285625,47.08649848],[2.39281197,47.08656758],[2.38998257,47.08662111],[2.38856791,47.08675949],[2.3887554,47.08719805],[2.38888919,47.08737252],[2.39269599,47.09042942],[2.39301126,47.09064536],[2.39334733,47.09077047],[2.39336974,47.09088763],[2.39348509,47.09094676],[2.39360021,47.09114274]]]]}},{"type":"Feature","properties":{"code":"182130102","nom":"Le Val d'Yevre","commune":"18213"},"geometry":{"type":"MultiPolygon","coordinates":[[[[2.46887235,47.08917847],[2.46854433,47.08915625],[2.46820029,47.08888727],[2.46798447,47.08804807],[2.46766911,47.08781163],[2.46740883,47.08773841],[2.46675517,47.08785514],[2.46647131,47.0875009],[2.4662441,47.08741702],[2.4657811,47.08731584],[2.46550326,47.0874181],[2.46536664,47.08737065],[2.46525303,47.08699648],[2.46461978,47.08704937],[2.46414349,47.08682749],[2.46386407,47.08695674],[2.46318703,47.08703913],[2.46269397,47.08691259],[2.46242761,47.08665746],[2.46209135,47.0866703],[2.46152979,47.08653984],[2.46139891,47.08657794],[2.4613338,47.08676221],[2.46096516,47.08684962],[2.46039347,47.08654624],[2.45954538,47.08633341],[2.45781288,47.08637751],[2.4573605,47.0866644],[2.45708019,47.08674951],[2.45615076,47.08676135],[2.45447729,47.08696144],[2.45425246,47.08703511],[2.45321874,47.08784143],[2.45195262,47.08777511],[2.45158006,47.08785707],[2.45109738,47.08813749],[2.45059898,47.08827827],[2.45029475,47.08825162],[2.4482847,47.0875857],[2.44743243,47.08739886],[2.44651985,47.08756556],[2.44470457,47.08770541],[2.44378662,47.08749752],[2.44280183,47.08712454],[2.44250325,47.08706188],[2.44160686,47.09062918],[2.44157929,47.09240091],[2.44125904,47.09417211],[2.44067838,47.09613473],[2.44131871,47.09617474],[2.44077351,47.10018309],[2.44081786,47.10022922],[2.44269624,47.1002761],[2.44361316,47.10060554],[2.44403813,47.10082186],[2.44433523,47.10103486],[2.44471135,47.101386],[2.44515643,47.10169965],[2.44499252,47.10199507],[2.44472968,47.10229542],[2.44598212,47.10256973],[2.44666263,47.10255678],[2.44891322,47.10218849],[2.44892964,47.10213004],[2.4492091,47.10200803],[2.45092937,47.10166148],[2.45093834,47.10129869],[2.45084993,47.10117582],[2.45092597,47.10108975],[2.4518233,47.10101748],[2.45296372,47.10102649],[2.45401289,47.1011935],[2.45477687,47.10139968],[2.45495474,47.09919561],[2.45499282,47.09803707],[2.45510121,47.09748747],[2.45501565,47.09721337],[2.45510006,47.09707962],[2.45529555,47.09704363],[2.45576384,47.09714937],[2.46217352,47.09759621],[2.46440759,47.09779745],[2.49022724,47.09954106],[2.49641614,47.09996972],[2.49708384,47.10005276],[2.49741905,47.1000182],[2.49775674,47.10014301],[2.49811772,47.10017429],[2.49978396,47.10021122],[2.5039991,47.10050668],[2.50417844,47.10021754],[2.51031336,47.09412416],[2.50812923,47.09379528],[2.50595606,47.09356723],[2.50466786,47.09301342],[2.49872224,47.0894684],[2.49548688,47.08655346],[2.49493742,47.08667081],[2.49452502,47.0866519],[2.49349459,47.08619002],[2.49196888,47.08597535],[2.49159337,47.08595749],[2.49083032,47.08608018],[2.49071401,47.08555568],[2.49024946,47.0851971],[2.49001705,47.08482244],[2.48892057,47.08480229],[2.48834,47.08500409],[2.48793194,47.08563972],[2.48584363,47.08678468],[2.48475283,47.08685545],[2.48382984,47.087297],[2.48245562,47.08846579],[2.48204809,47.08862422],[2.48192719,47.08885957],[2.48090282,47.08914578],[2.47911996,47.08989134],[2.47827457,47.08979659],[2.47748796,47.09002893],[2.47719783,47.08990517],[2.47660006,47.08983134],[2.4758244,47.0894794],[2.4749609,47.08962043],[2.47154704,47.08958147],[2.47029942,47.08963968],[2.46975657,47.08934369],[2.46887235,47.08917847]]]]}},{"type":"Feature","properties":{"code":"182050102","nom":"Malitorne","commune":"18205"},"geometry":{"type":"MultiPolygon","coordinates":[[[[2.39199036,47.10694688],[2.39244407,47.10612006],[2.39140427,47.10396279],[2.39142076,47.10378731],[2.39162659,47.1035426],[2.39277284,47.10210179],[2.3925087,47.10190593],[2.39242915,47.10147695],[2.3920675,47.10104199],[2.39235803,47.10076802],[2.3923573,47.09919423],[2.39252773,47.09857839],[2.39255358,47.09792308],[2.39280629,47.09761019],[2.39289176,47.09704433],[2.39266252,47.09667849],[2.39239524,47.09652943],[2.39240163,47.09596315],[2.39197937,47.09599515],[2.39197203,47.09617878],[2.39158844,47.09652339],[2.39039348,47.09668186],[2.38906978,47.09656593],[2.3884462,47.09633034],[2.38800713,47.09470741],[2.38848189,47.09364843],[2.38918185,47.09214316],[2.3890167,47.09205856],[2.38873885,47.0915655],[2.38847032,47.09164602],[2.38813417,47.09187742],[2.387272,47.09141279],[2.38666649,47.09144919],[2.38625771,47.09134258],[2.38591577,47.09138668],[2.38568035,47.09145386],[2.38551416,47.09180861],[2.38495414,47.09155444],[2.38397436,47.09157983],[2.3835272,47.09287033],[2.38287889,47.09284347],[2.38235522,47.09286948],[2.3809852,47.09300801],[2.38047373,47.09311871],[2.38011607,47.09326805],[2.37969854,47.09357823],[2.37873809,47.09466789],[2.37861962,47.09488153],[2.37860038,47.09517764],[2.37385737,47.09490356],[2.37237472,47.09621722],[2.3726667,47.09639166],[2.37297922,47.0965005],[2.37488994,47.09647213],[2.3753264,47.09657983],[2.37583337,47.09686167],[2.37594775,47.0968893],[2.37686708,47.09685644],[2.37793353,47.09698463],[2.3794989,47.09706507],[2.38048758,47.09719192],[2.38107955,47.09719329],[2.3820149,47.09725771],[2.38117499,47.09944554],[2.38089516,47.10027685],[2.38072093,47.10098178],[2.37920615,47.10531508],[2.37899772,47.10543731],[2.37656159,47.10560337],[2.37639731,47.10555566],[2.37627496,47.10564504],[2.37583281,47.10568047],[2.37570932,47.10564018],[2.37564696,47.10567316],[2.37484977,47.10573638],[2.37375224,47.10577186],[2.37369874,47.10583729],[2.37356537,47.10585277],[2.37221181,47.10635953],[2.37120399,47.10684293],[2.37041859,47.10736265],[2.3691489,47.10835961],[2.36906333,47.10834654],[2.36902605,47.10837695],[2.3690689,47.1084339],[2.36877963,47.10869972],[2.36774158,47.10950525],[2.365595,47.11059821],[2.36448676,47.11130969],[2.36503919,47.11165755],[2.36520457,47.11183673],[2.36535075,47.11185374],[2.36589798,47.11208452],[2.3667912,47.11272505],[2.36791063,47.11330829],[2.36967786,47.11443615],[2.37107197,47.11522072],[2.37135326,47.11541582],[2.3721832,47.11617661],[2.37244091,47.11635897],[2.3751383,47.11702182],[2.37629703,47.11411009],[2.37767854,47.11405181],[2.37845657,47.1140596],[2.37990493,47.1141511],[2.38199682,47.11413439],[2.38326349,47.11431491],[2.38338082,47.11431914],[2.3835648,47.1142616],[2.38366494,47.11415409],[2.38397793,47.11353993],[2.38460156,47.11297784],[2.38482341,47.11272153],[2.38541736,47.11163798],[2.38582667,47.11113237],[2.3868497,47.10919128],[2.38796448,47.10752527],[2.38851323,47.1068124],[2.3905069,47.10694267],[2.39199036,47.10694688]]]]}},{"type":"Feature","properties":{"code":"182050103","nom":"Maxime Lebrun","commune":"18205"},"geometry":{"type":"MultiPolygon","coordinates":[[[[2.37297922,47.0965005],[2.37315453,47.09922587],[2.37325042,47.0992561],[2.37326966,47.09930303],[2.37323729,47.09936497],[2.37316061,47.09938347],[2.37353433,47.10546006],[2.37359345,47.10570617],[2.37353217,47.10575986],[2.37356537,47.10585277],[2.37369874,47.10583729],[2.37375224,47.10577186],[2.37484977,47.10573638],[2.37564696,47.10567316],[2.37570932,47.10564018],[2.37583281,47.10568047],[2.37627496,47.10564504],[2.37639731,47.10555566],[2.37656159,47.10560337],[2.37899772,47.10543731],[2.37920615,47.10531508],[2.38072093,47.10098178],[2.38089516,47.10027685],[2.38117499,47.09944554],[2.3820149,47.09725771],[2.38107955,47.09719329],[2.38048758,47.09719192],[2.3794989,47.09706507],[2.37793353,47.09698463],[2.37686708,47.09685644],[2.37594775,47.0968893],[2.37583337,47.09686167],[2.3753264,47.09657983],[2.37488994,47.09647213],[2.37297922,47.0965005]]]]}},{"type":"Feature","properties":{"code":"182050104","nom":"Bourg","commune":"18205"},"geometry":{"type":"MultiPolygon","coordinates":[[[[2.36902605,47.10837695],[2.36906333,47.10834654],[2.3691489,47.10835961],[2.37041859,47.10736265],[2.37120399,47.10684293],[2.37221181,47.10635953],[2.37356537,47.10585277],[2.37353217,47.10575986],[2.37359345,47.10570617],[2.37353433,47.10546006],[2.37316061,47.09938347],[2.37323729,47.09936497],[2.37326966,47.09930303],[2.37325042,47.0992561],[2.37315453,47.09922587],[2.37297922,47.0965005],[2.3726667,47.09639166],[2.37237472,47.09621722],[2.37203677,47.09648098],[2.37160389,47.09674513],[2.36964661,47.09782298],[2.36936412,47.09762697],[2.36905296,47.09751453],[2.36695056,47.09747063],[2.36462116,47.09778107],[2.36372897,47.097859],[2.35927366,47.09799106],[2.35812167,47.09818364],[2.3576309,47.09820883],[2.35815461,47.09940378],[2.35838097,47.10021534],[2.35854493,47.10194941],[2.35826827,47.10348024],[2.35827912,47.10367658],[2.35840695,47.10390417],[2.36001402,47.10359706],[2.36044298,47.10356162],[2.36044362,47.10361924],[2.36052713,47.10369353],[2.36074375,47.10366232],[2.36276974,47.10505912],[2.36462981,47.1059985],[2.36665683,47.10721157],[2.36850388,47.10814901],[2.36902605,47.10837695]]]]}},{"type":"Feature","properties":{"code":"180330201","nom":"Couronne Centrale 1","commune":"18033"},"geometry":{"type":"MultiPolygon","coordinates":[[[[2.4209819,47.0947404],[2.42198478,47.09477783],[2.4233443,47.0947513],[2.42320284,47.09417258],[2.42266364,47.09355586],[2.4224057,47.09314402],[2.42191187,47.09186398],[2.42194131,47.09157692],[2.42177024,47.09130236],[2.42164879,47.09021145],[2.42160186,47.09016259],[2.420417,47.08510937],[2.42033063,47.08492887],[2.41956979,47.08409674],[2.41938132,47.08372756],[2.41939432,47.08337739],[2.41997575,47.07931888],[2.41602518,47.07888213],[2.41570225,47.07876255],[2.41545389,47.07881622],[2.4097369,47.07817493],[2.40926879,47.07855789],[2.40688023,47.08062995],[2.40672538,47.08068857],[2.40639008,47.08073547],[2.40511048,47.08035885],[2.40360475,47.08017012],[2.40357063,47.08039503],[2.40326003,47.08118753],[2.4032232,47.08141873],[2.402823,47.08149409],[2.40253278,47.0838965],[2.40260055,47.08432361],[2.40267948,47.08433752],[2.40267301,47.08456438],[2.4026183,47.08474416],[2.40236965,47.08493825],[2.40270194,47.0852848],[2.40149705,47.08921485],[2.40147031,47.08936686],[2.40166719,47.09003864],[2.4018184,47.09007363],[2.40189503,47.09017667],[2.40213252,47.09003924],[2.40278541,47.08988866],[2.40298467,47.09058475],[2.40306897,47.09071033],[2.40323944,47.09091109],[2.40370815,47.09120341],[2.4038705,47.09142393],[2.40402731,47.09154899],[2.40427254,47.09190498],[2.40433443,47.09215019],[2.40461298,47.09247305],[2.40509147,47.0927177],[2.40615239,47.09298696],[2.40644122,47.09333597],[2.40600131,47.09341744],[2.40511996,47.09348133],[2.4051202,47.09369832],[2.41250154,47.09418983],[2.4209819,47.0947404]]]]}},{"type":"Feature","properties":{"code":"180330202","nom":"Couronne Centrale 2","commune":"18033"},"geometry":{"type":"MultiPolygon","coordinates":[[[[2.38873885,47.0915655],[2.3890167,47.09205856],[2.38918185,47.09214316],[2.38848189,47.09364843],[2.39125675,47.09390526],[2.39342745,47.0937267],[2.39391138,47.09371843],[2.39416268,47.09376297],[2.39432928,47.09371972],[2.39491952,47.09398841],[2.39511034,47.09495907],[2.39524688,47.09501021],[2.39515773,47.09508357],[2.39520308,47.09515403],[2.39760238,47.09493247],[2.40109514,47.09394854],[2.40107095,47.09375304],[2.4026455,47.09359372],[2.4031267,47.09359351],[2.40360923,47.0935924],[2.4051202,47.09369832],[2.40511996,47.09348133],[2.40600131,47.09341744],[2.40644122,47.09333597],[2.40615239,47.09298696],[2.40509147,47.0927177],[2.40461298,47.09247305],[2.40433443,47.09215019],[2.40427254,47.09190498],[2.40402731,47.09154899],[2.4038705,47.09142393],[2.40370815,47.09120341],[2.40323944,47.09091109],[2.40306897,47.09071033],[2.40298467,47.09058475],[2.40278541,47.08988866],[2.40213252,47.09003924],[2.40189503,47.09017667],[2.4018184,47.09007363],[2.40166719,47.09003864],[2.40147031,47.08936686],[2.40149705,47.08921485],[2.40270194,47.0852848],[2.40236965,47.08493825],[2.39950727,47.08606775],[2.39894252,47.08635652],[2.39455423,47.09012315],[2.39381764,47.09079905],[2.3937743,47.09090146],[2.39368949,47.09094063],[2.39360021,47.09114274],[2.39337364,47.09112714],[2.39282353,47.09092708],[2.39217672,47.09076882],[2.39100821,47.09034762],[2.39021615,47.09032814],[2.39003368,47.09037669],[2.39068497,47.0908375],[2.39064975,47.09092105],[2.39037671,47.09105196],[2.38999878,47.09113099],[2.3898662,47.09119782],[2.38935403,47.09160657],[2.38894134,47.09149545],[2.38873885,47.0915655]]]]}},{"type":"Feature","properties":{"code":"180330203","nom":"Couronne Centrale 3","commune":"18033"},"geometry":{"type":"MultiPolygon","coordinates":[[[[2.3825084,47.09158101],[2.3837199,47.09158208],[2.38397436,47.09157983],[2.38495414,47.09155444],[2.38551416,47.09180861],[2.38568035,47.09145386],[2.38591577,47.09138668],[2.38625771,47.09134258],[2.38666649,47.09144919],[2.387272,47.09141279],[2.38813417,47.09187742],[2.38847032,47.09164602],[2.38873885,47.0915655],[2.38894134,47.09149545],[2.38935403,47.09160657],[2.3898662,47.09119782],[2.38999878,47.09113099],[2.39037671,47.09105196],[2.39064975,47.09092105],[2.39068497,47.0908375],[2.39003368,47.09037669],[2.39021615,47.09032814],[2.39100821,47.09034762],[2.39217672,47.09076882],[2.39282353,47.09092708],[2.39337364,47.09112714],[2.39360021,47.09114274],[2.39348509,47.09094676],[2.39336974,47.09088763],[2.39334733,47.09077047],[2.39301126,47.09064536],[2.39269599,47.09042942],[2.38888919,47.08737252],[2.3887554,47.08719805],[2.38856791,47.08675949],[2.38846702,47.08565964],[2.38930461,47.08200148],[2.38926192,47.08193013],[2.38944779,47.08134589],[2.38944884,47.08032131],[2.38953369,47.08016149],[2.38979834,47.07995221],[2.39035279,47.07964092],[2.38902065,47.07867772],[2.3845958,47.07570742],[2.381898,47.07801141],[2.38167869,47.07828754],[2.38157709,47.07864264],[2.38161613,47.07903089],[2.38185375,47.07945713],[2.38312539,47.08097559],[2.38440333,47.08241035],[2.38456381,47.08278575],[2.38452958,47.08312859],[2.38323832,47.08596949],[2.38269576,47.08742065],[2.38257213,47.08797189],[2.38250933,47.0886216],[2.38259917,47.08929464],[2.3825084,47.09158101]]]]}},{"type":"Feature","properties":{"code":"180330204","nom":"Couronne Centrale 4","commune":"18033"},"geometry":{"type":"MultiPolygon","coordinates":[[[[2.38564153,47.07472711],[2.38538077,47.07505795],[2.3845958,47.07570742],[2.38902065,47.07867772],[2.39035279,47.07964092],[2.39092046,47.07920814],[2.3913981,47.07892795],[2.39167711,47.07931477],[2.392294,47.07989333],[2.39280755,47.0798186],[2.39327224,47.0799858],[2.3938689,47.08025633],[2.39383697,47.08051727],[2.39410136,47.08056457],[2.39463141,47.08089867],[2.39504017,47.08041373],[2.39563126,47.07953539],[2.39586388,47.07947718],[2.3964295,47.07922444],[2.39687188,47.07914842],[2.39737217,47.07919694],[2.39796726,47.07937291],[2.39802689,47.07946235],[2.39812662,47.07950159],[2.39827043,47.07948793],[2.39837573,47.07938224],[2.3983848,47.07927875],[2.39864731,47.07913966],[2.39876858,47.07901964],[2.40119739,47.07583694],[2.40112689,47.07577625],[2.4004057,47.07556543],[2.40010399,47.07555757],[2.39979359,47.07550103],[2.39682868,47.07452493],[2.39733032,47.0725621],[2.39655142,47.07244999],[2.38850595,47.07129758],[2.38784518,47.07157859],[2.38718846,47.07208201],[2.38689524,47.07248831],[2.38564153,47.07472711]]]]}},{"type":"Feature","properties":{"code":"180330205","nom":"Couronne Centrale 5","commune":"18033"},"geometry":{"type":"MultiPolygon","coordinates":[[[[2.40595697,47.07578137],[2.40279689,47.07385276],[2.40284031,47.07374044],[2.40277528,47.07366177],[2.40256295,47.07367598],[2.4019195,47.07334943],[2.40121947,47.07313513],[2.39733032,47.0725621],[2.39682868,47.07452493],[2.39979359,47.07550103],[2.40010399,47.07555757],[2.4004057,47.07556543],[2.40112689,47.07577625],[2.40119739,47.07583694],[2.39876858,47.07901964],[2.39864731,47.07913966],[2.3983848,47.07927875],[2.39837573,47.07938224],[2.39910422,47.07965163],[2.39930203,47.07964185],[2.39944639,47.07981637],[2.39978409,47.07990816],[2.40130768,47.07991156],[2.40360475,47.08017012],[2.40511048,47.08035885],[2.40639008,47.08073547],[2.40672538,47.08068857],[2.40688023,47.08062995],[2.40926879,47.07855789],[2.40595697,47.07578137]]]]}},{"type":"Feature","properties":{"code":"180330301","nom":"Moulon","commune":"18033"},"geometry":{"type":"MultiPolygon","coordinates":[[[[2.38848189,47.09364843],[2.38800713,47.09470741],[2.3884462,47.09633034],[2.38906978,47.09656593],[2.39039348,47.09668186],[2.39158844,47.09652339],[2.39197203,47.09617878],[2.39197937,47.09599515],[2.39240163,47.09596315],[2.39239524,47.09652943],[2.39266252,47.09667849],[2.39289176,47.09704433],[2.39280629,47.09761019],[2.39255358,47.09792308],[2.39252773,47.09857839],[2.3923573,47.09919423],[2.39235803,47.10076802],[2.3920675,47.10104199],[2.39242915,47.10147695],[2.3925087,47.10190593],[2.39277284,47.10210179],[2.39162659,47.1035426],[2.39577293,47.10571524],[2.40009646,47.10811283],[2.39921957,47.10526862],[2.3995993,47.1052715],[2.39976191,47.10535247],[2.39982629,47.10549146],[2.40004534,47.10559613],[2.3996389,47.10609641],[2.39974339,47.10618698],[2.39995223,47.10626099],[2.39999018,47.10640524],[2.40003941,47.10660357],[2.39991093,47.10677307],[2.39988016,47.10704931],[2.40006971,47.10708001],[2.4001915,47.10703742],[2.40046829,47.10669313],[2.4006756,47.10654925],[2.40078575,47.10660564],[2.40085844,47.10670956],[2.40081278,47.10713968],[2.4009817,47.10724679],[2.40114765,47.10726476],[2.40119406,47.10724159],[2.40117903,47.10705154],[2.40126709,47.10695926],[2.40131451,47.10672632],[2.40195843,47.10621376],[2.40245717,47.10606869],[2.40284717,47.10585912],[2.4010119,47.10524011],[2.39975196,47.10470688],[2.39891603,47.10434511],[2.3982176,47.10206183],[2.39817188,47.10166904],[2.39823803,47.10153074],[2.39827991,47.10120413],[2.39819061,47.10105421],[2.40041307,47.09873479],[2.40202988,47.09941481],[2.40452073,47.09855884],[2.40586353,47.0981453],[2.40508254,47.09699245],[2.40465615,47.09620517],[2.40451203,47.09576506],[2.40407982,47.0951479],[2.40348057,47.09402029],[2.40342487,47.09381203],[2.4031267,47.09359351],[2.4026455,47.09359372],[2.40107095,47.09375304],[2.40109514,47.09394854],[2.39760238,47.09493247],[2.39520308,47.09515403],[2.39515773,47.09508357],[2.39524688,47.09501021],[2.39511034,47.09495907],[2.39491952,47.09398841],[2.39432928,47.09371972],[2.39416268,47.09376297],[2.39391138,47.09371843],[2.39342745,47.0937267],[2.39125675,47.09390526],[2.38848189,47.09364843]]]]}},{"type":"Feature","properties":{"code":"180330401","nom":"Gibjoncs 1","commune":"18033"},"geometry":{"type":"MultiPolygon","coordinates":[[[[2.4051202,47.09369832],[2.40360923,47.0935924],[2.4031267,47.09359351],[2.40342487,47.09381203],[2.40348057,47.09402029],[2.40407982,47.0951479],[2.40451203,47.09576506],[2.40465615,47.09620517],[2.40508254,47.09699245],[2.40586353,47.0981453],[2.40885522,47.10246423],[2.40933279,47.10316352],[2.41132552,47.10264789],[2.41121352,47.10239883],[2.40994936,47.10056111],[2.41088939,47.10008422],[2.40938286,47.09883407],[2.40879157,47.0984088],[2.41021626,47.09737528],[2.41258338,47.09841642],[2.41340284,47.09750404],[2.4124135,47.0971884],[2.41171149,47.09688141],[2.41184827,47.09679118],[2.41207178,47.09672749],[2.41331816,47.09644121],[2.41320072,47.09620833],[2.41311828,47.09615119],[2.41189,47.0957452],[2.41216754,47.09532075],[2.4119633,47.09506852],[2.41218837,47.0946186],[2.41250154,47.09418983],[2.4051202,47.09369832]]]]}},{"type":"Feature","properties":{"code":"180330402","nom":"Gibjoncs 2","commune":"18033"},"geometry":{"type":"MultiPolygon","coordinates":[[[[2.4209819,47.0947404],[2.41250154,47.09418983],[2.41218837,47.0946186],[2.4119633,47.09506852],[2.41216754,47.09532075],[2.41189,47.0957452],[2.41311828,47.09615119],[2.41320072,47.09620833],[2.41331816,47.09644121],[2.41207178,47.09672749],[2.41184827,47.09679118],[2.41171149,47.09688141],[2.4124135,47.0971884],[2.41340284,47.09750404],[2.41258338,47.09841642],[2.41021626,47.09737528],[2.40879157,47.0984088],[2.40938286,47.09883407],[2.41088939,47.10008422],[2.40994936,47.10056111],[2.41121352,47.10239883],[2.41132552,47.10264789],[2.41143229,47.10265113],[2.41156384,47.10255817],[2.41248704,47.10217572],[2.41294126,47.10199616],[2.41304414,47.10199308],[2.41309755,47.10193213],[2.41405911,47.10141571],[2.41452805,47.10109397],[2.4154867,47.1002345],[2.41668463,47.09870548],[2.41787682,47.09721243],[2.41917308,47.09608813],[2.42024487,47.09523639],[2.4209819,47.0947404]]]]}},{"type":"Feature","properties":{"code":"180330501","nom":"Turly","commune":"18033"},"geometry":{"type":"MultiPolygon","coordinates":[[[[2.42345938,47.12406301],[2.42359382,47.12407269],[2.42430257,47.1240357],[2.42580762,47.12379019],[2.42744521,47.12373348],[2.43303318,47.12407612],[2.43546354,47.12401868],[2.43692753,47.12416356],[2.43822417,47.1245453],[2.43913829,47.12467308],[2.4400508,47.12470271],[2.44285875,47.12448758],[2.44587574,47.12356844],[2.44718573,47.12483966],[2.44774584,47.12553378],[2.45041302,47.12450661],[2.45217509,47.12323291],[2.45405746,47.12166354],[2.44771218,47.11774762],[2.44575908,47.11682715],[2.43650834,47.11101586],[2.43493311,47.11019428],[2.43315504,47.10947972],[2.43463573,47.1071137],[2.43446222,47.10706063],[2.43451818,47.1065036],[2.43456164,47.10638317],[2.43476341,47.10638145],[2.43535969,47.1050987],[2.43546681,47.10494256],[2.43586348,47.10509125],[2.43690365,47.10359727],[2.43844779,47.10105864],[2.43924083,47.10049258],[2.43952094,47.10018242],[2.44077351,47.10018309],[2.44131871,47.09617474],[2.44067838,47.09613473],[2.43702384,47.09587571],[2.43420544,47.0957179],[2.4283143,47.09527297],[2.42771569,47.09527901],[2.42668996,47.09540628],[2.42612708,47.09539898],[2.42521933,47.09521801],[2.42458933,47.09520047],[2.4246202,47.09490171],[2.42434729,47.09477881],[2.4233443,47.0947513],[2.42198478,47.09477783],[2.4209819,47.0947404],[2.42024487,47.09523639],[2.41917308,47.09608813],[2.41787682,47.09721243],[2.41668463,47.09870548],[2.41948463,47.09984679],[2.4226817,47.10085856],[2.42731453,47.1025139],[2.42548384,47.10503835],[2.42478659,47.10463964],[2.42275456,47.10673809],[2.42147713,47.10768786],[2.42041387,47.10821553],[2.4202579,47.10837141],[2.42022809,47.10844598],[2.42012465,47.10850038],[2.41993999,47.10850396],[2.41965302,47.10857905],[2.41812457,47.10944019],[2.41611035,47.11009718],[2.41538191,47.11026366],[2.41447727,47.11062642],[2.41766709,47.11528913],[2.41783611,47.1156366],[2.41847203,47.11659415],[2.41851203,47.11679873],[2.41847111,47.11692457],[2.41853798,47.11708336],[2.41876531,47.11716103],[2.41912303,47.11750135],[2.42042372,47.11956512],[2.42345938,47.12406301]]]]}},{"type":"Feature","properties":{"code":"180330601","nom":"Pignoux 1","commune":"18033"},"geometry":{"type":"MultiPolygon","coordinates":[[[[2.44067838,47.09613473],[2.44125904,47.09417211],[2.44157929,47.09240091],[2.44160686,47.09062918],[2.44250325,47.08706188],[2.44280183,47.08712454],[2.44269857,47.08652892],[2.44242641,47.0856966],[2.44228484,47.08460021],[2.44214117,47.08408992],[2.44235483,47.08407745],[2.44250343,47.08398363],[2.44251953,47.08382885],[2.44243073,47.08374829],[2.44222961,47.0836951],[2.4424634,47.08339372],[2.44263155,47.08268326],[2.44262296,47.08211151],[2.44247221,47.08152106],[2.44190769,47.08041272],[2.4383826,47.07478474],[2.43812761,47.07497257],[2.437719,47.07485264],[2.43769554,47.07495336],[2.43424885,47.07574775],[2.43410399,47.07573714],[2.43402709,47.07565573],[2.433476,47.07693061],[2.43008941,47.07601002],[2.42874628,47.07826684],[2.42862362,47.07839949],[2.42851556,47.07864655],[2.42878559,47.07890988],[2.42893997,47.07914293],[2.42877571,47.08009198],[2.42752365,47.07996334],[2.42621052,47.07975245],[2.42516101,47.07954016],[2.42446277,47.07963572],[2.42420971,47.07963626],[2.42395423,47.07973943],[2.42365636,47.07973974],[2.41997575,47.07931888],[2.41939432,47.08337739],[2.41938132,47.08372756],[2.41956979,47.08409674],[2.42033063,47.08492887],[2.420417,47.08510937],[2.42160186,47.09016259],[2.42164879,47.09021145],[2.42177024,47.09130236],[2.42194131,47.09157692],[2.42191187,47.09186398],[2.4224057,47.09314402],[2.42266364,47.09355586],[2.42320284,47.09417258],[2.4233443,47.0947513],[2.42434729,47.09477881],[2.4246202,47.09490171],[2.42458933,47.09520047],[2.42521933,47.09521801],[2.42612708,47.09539898],[2.42668996,47.09540628],[2.42771569,47.09527901],[2.4283143,47.09527297],[2.43420544,47.0957179],[2.43702384,47.09587571],[2.44067838,47.09613473]]]]}},{"type":"Feature","properties":{"code":"180330602","nom":"Pignoux 2","commune":"18033"},"geometry":{"type":"MultiPolygon","coordinates":[[[[2.40595697,47.07578137],[2.40926879,47.07855789],[2.4097369,47.07817493],[2.41545389,47.07881622],[2.41570225,47.07876255],[2.41602518,47.07888213],[2.41997575,47.07931888],[2.42365636,47.07973974],[2.42395423,47.07973943],[2.42420971,47.07963626],[2.42446277,47.07963572],[2.42516101,47.07954016],[2.42621052,47.07975245],[2.42752365,47.07996334],[2.42877571,47.08009198],[2.42893997,47.07914293],[2.42878559,47.07890988],[2.42851556,47.07864655],[2.42862362,47.07839949],[2.42874628,47.07826684],[2.43008941,47.07601002],[2.433476,47.07693061],[2.43402709,47.07565573],[2.43410399,47.07573714],[2.43424885,47.07574775],[2.43769554,47.07495336],[2.437719,47.07485264],[2.43812761,47.07497257],[2.4383826,47.07478474],[2.43187374,47.06438369],[2.43157126,47.06370425],[2.43144301,47.06324534],[2.43122693,47.06136976],[2.43105418,47.06050998],[2.43058141,47.05961451],[2.43011573,47.0590477],[2.42975717,47.05869209],[2.42892092,47.05803611],[2.42826263,47.0576214],[2.42809691,47.05771872],[2.42787103,47.05777522],[2.42741426,47.05773785],[2.42717275,47.05777716],[2.42695016,47.05789491],[2.42563038,47.05897867],[2.42423184,47.06040056],[2.42238445,47.0623892],[2.42057764,47.06414483],[2.41869031,47.06578028],[2.41539773,47.06855384],[2.41477852,47.06914943],[2.40878068,47.07427067],[2.40820602,47.07463687],[2.40595697,47.07578137]]]]}},{"type":"Feature","properties":{"code":"180330701","nom":"Gionne","commune":"18033"},"geometry":{"type":"MultiPolygon","coordinates":[[[[2.39649424,47.06542791],[2.39651196,47.0659637],[2.39621209,47.06697323],[2.39620721,47.06788075],[2.39589432,47.06922783],[2.39621617,47.07014156],[2.39626051,47.07053614],[2.39650908,47.07152242],[2.39658307,47.07221247],[2.39655142,47.07244999],[2.39733032,47.0725621],[2.40121947,47.07313513],[2.4019195,47.07334943],[2.40256295,47.07367598],[2.40277528,47.07366177],[2.40284031,47.07374044],[2.40279689,47.07385276],[2.40595697,47.07578137],[2.40820602,47.07463687],[2.40878068,47.07427067],[2.41477852,47.06914943],[2.41539773,47.06855384],[2.41869031,47.06578028],[2.41726848,47.06529954],[2.41589662,47.06495139],[2.41432504,47.06467423],[2.41227205,47.06444232],[2.41197429,47.0644399],[2.41177419,47.06454513],[2.41114416,47.06516676],[2.41081052,47.0657953],[2.41051091,47.0669264],[2.40757119,47.06656204],[2.40761275,47.06625703],[2.40775717,47.06594445],[2.4079272,47.06533939],[2.40596842,47.06492869],[2.40399277,47.06545062],[2.40391116,47.06544299],[2.40347894,47.06520757],[2.4032545,47.06512809],[2.40273728,47.06542973],[2.40254341,47.06544493],[2.40201714,47.06537379],[2.40165995,47.0650271],[2.40158529,47.06486736],[2.40159135,47.06479626],[2.40202372,47.06418536],[2.40156765,47.06396332],[2.40084239,47.06342115],[2.40048298,47.06327613],[2.40017418,47.0632007],[2.40083426,47.06178068],[2.40086076,47.06129193],[2.40104262,47.06093273],[2.40028087,47.06130693],[2.39996853,47.06131431],[2.39990302,47.0613995],[2.39954384,47.06194595],[2.39938052,47.06229533],[2.39929467,47.06302417],[2.39920159,47.06321816],[2.3984269,47.06404065],[2.39831752,47.06427867],[2.39819331,47.06478222],[2.3980514,47.06498315],[2.39774599,47.06519404],[2.397361,47.06533249],[2.39649424,47.06542791]]]]}},{"type":"Feature","properties":{"code":"180330801","nom":"Mazières","commune":"18033"},"geometry":{"type":"MultiPolygon","coordinates":[[[[2.38648449,47.05669314],[2.38590195,47.0612278],[2.38596136,47.06202763],[2.38629185,47.06320614],[2.38526553,47.06331323],[2.38437839,47.06323197],[2.38359537,47.06360955],[2.38263383,47.06634507],[2.38249468,47.0665298],[2.38225723,47.06666808],[2.38204164,47.06673896],[2.38004089,47.0671253],[2.38179456,47.07013194],[2.38256363,47.07121287],[2.38303931,47.07179343],[2.38393939,47.07271568],[2.3851205,47.07372676],[2.38539938,47.07411899],[2.38564153,47.07472711],[2.38689524,47.07248831],[2.38718846,47.07208201],[2.38784518,47.07157859],[2.38850595,47.07129758],[2.39655142,47.07244999],[2.39658307,47.07221247],[2.39650908,47.07152242],[2.39626051,47.07053614],[2.39621617,47.07014156],[2.39589432,47.06922783],[2.39620721,47.06788075],[2.39621209,47.06697323],[2.39651196,47.0659637],[2.39649424,47.06542791],[2.39574527,47.06547621],[2.39561608,47.06536389],[2.39541728,47.06534845],[2.39520851,47.06540048],[2.39505317,47.065505],[2.39366794,47.06530327],[2.39190937,47.06514277],[2.39049897,47.06495437],[2.39060293,47.06053331],[2.39192229,47.06083918],[2.39203344,47.06079745],[2.39221911,47.06045539],[2.39233178,47.06039476],[2.39252284,47.06039397],[2.39330257,47.06053311],[2.39350586,47.06049817],[2.39450231,47.0587027],[2.39425624,47.05855825],[2.39308623,47.05809654],[2.39143911,47.05753686],[2.39115103,47.05749753],[2.39072022,47.05749706],[2.38965132,47.0571862],[2.38648449,47.05669314]]]]}},{"type":"Feature","properties":{"code":"180330901","nom":"Vauvert 1","commune":"18033"},"geometry":{"type":"MultiPolygon","coordinates":[[[[2.37701657,47.0916776],[2.38146924,47.09161057],[2.38161597,47.09169059],[2.38197051,47.09169789],[2.3825084,47.09158101],[2.38259917,47.08929464],[2.38250933,47.0886216],[2.38257213,47.08797189],[2.38269576,47.08742065],[2.38323832,47.08596949],[2.38452958,47.08312859],[2.38456381,47.08278575],[2.38440333,47.08241035],[2.38312539,47.08097559],[2.38185375,47.07945713],[2.38161613,47.07903089],[2.38157709,47.07864264],[2.38167869,47.07828754],[2.381898,47.07801141],[2.3845958,47.07570742],[2.38083876,47.07315379],[2.37910284,47.07192091],[2.37634294,47.0741209],[2.3764912,47.07611596],[2.37494596,47.07594375],[2.36813434,47.07599675],[2.36527443,47.07588654],[2.36523993,47.07657872],[2.36531119,47.07690683],[2.36549191,47.07734089],[2.36801272,47.08221476],[2.3682594,47.08253573],[2.36856176,47.08282909],[2.36909311,47.08315342],[2.36986474,47.08344484],[2.3750882,47.08425649],[2.37551663,47.08436684],[2.37585256,47.08449741],[2.37637498,47.08480094],[2.37679737,47.08520657],[2.37699355,47.08556777],[2.37709546,47.08598877],[2.37701657,47.0916776]]]]}},{"type":"Feature","properties":{"code":"180330902","nom":"Vauvert 2","commune":"18033"},"geometry":{"type":"MultiPolygon","coordinates":[[[[2.3845958,47.07570742],[2.38538077,47.07505795],[2.38564153,47.07472711],[2.38539938,47.07411899],[2.3851205,47.07372676],[2.38393939,47.07271568],[2.38303931,47.07179343],[2.38256363,47.07121287],[2.38179456,47.07013194],[2.38004089,47.0671253],[2.38204164,47.06673896],[2.38225723,47.06666808],[2.38249468,47.0665298],[2.38263383,47.06634507],[2.38359537,47.06360955],[2.37910061,47.06558876],[2.37456974,47.06849405],[2.37461594,47.06860145],[2.37454916,47.06867851],[2.37530724,47.06921472],[2.37538782,47.06931149],[2.37327094,47.06833846],[2.36609112,47.07446398],[2.36561031,47.07500605],[2.36542438,47.07535166],[2.36527443,47.07588654],[2.36813434,47.07599675],[2.37494596,47.07594375],[2.3764912,47.07611596],[2.37634294,47.0741209],[2.37910284,47.07192091],[2.38083876,47.07315379],[2.3845958,47.07570742]]]]}},{"type":"Feature","properties":{"code":"180331001","nom":"Chancellerie 1","commune":"18033"},"geometry":{"type":"MultiPolygon","coordinates":[[[[2.41447727,47.11062642],[2.41147073,47.10625626],[2.40985068,47.10680621],[2.40831114,47.1083073],[2.41032923,47.10959068],[2.40998385,47.10994004],[2.40940073,47.10972099],[2.40922256,47.10985423],[2.40779108,47.10895198],[2.40764619,47.10881709],[2.40754308,47.10895971],[2.40715471,47.1089001],[2.40676139,47.10869191],[2.40597086,47.10838894],[2.40566266,47.1082352],[2.40467431,47.10745763],[2.40425956,47.10728083],[2.40414163,47.10709295],[2.40392049,47.10693786],[2.40352125,47.10702853],[2.40321624,47.10694503],[2.40248532,47.10638395],[2.40195843,47.10621376],[2.40131451,47.10672632],[2.40126709,47.10695926],[2.40117903,47.10705154],[2.40119406,47.10724159],[2.40114765,47.10726476],[2.4009817,47.10724679],[2.40081278,47.10713968],[2.40085844,47.10670956],[2.40078575,47.10660564],[2.4006756,47.10654925],[2.40046829,47.10669313],[2.4001915,47.10703742],[2.40006971,47.10708001],[2.39988016,47.10704931],[2.39991093,47.10677307],[2.40003941,47.10660357],[2.39999018,47.10640524],[2.39995223,47.10626099],[2.39974339,47.10618698],[2.3996389,47.10609641],[2.40004534,47.10559613],[2.39982629,47.10549146],[2.39976191,47.10535247],[2.3995993,47.1052715],[2.39921957,47.10526862],[2.40009646,47.10811283],[2.41379765,47.11576206],[2.41462233,47.11633434],[2.41517497,47.11681882],[2.41560105,47.11729904],[2.41610258,47.11811997],[2.41721005,47.11755025],[2.41803306,47.11718436],[2.41847111,47.11692457],[2.41851203,47.11679873],[2.41847203,47.11659415],[2.41783611,47.1156366],[2.41766709,47.11528913],[2.41447727,47.11062642]]]]}},{"type":"Feature","properties":{"code":"180331002","nom":"Chancellerie 2","commune":"18033"},"geometry":{"type":"MultiPolygon","coordinates":[[[[2.41147073,47.10625626],[2.40981693,47.10386645],[2.40896617,47.10413131],[2.40832915,47.1042631],[2.4085027,47.10467004],[2.40852257,47.10490243],[2.40790368,47.1055439],[2.40768123,47.10574803],[2.40713423,47.10548684],[2.40634258,47.10624716],[2.40533143,47.10574588],[2.40460883,47.10646063],[2.40284717,47.10585912],[2.40245717,47.10606869],[2.40195843,47.10621376],[2.40248532,47.10638395],[2.40321624,47.10694503],[2.40352125,47.10702853],[2.40392049,47.10693786],[2.40414163,47.10709295],[2.40425956,47.10728083],[2.40467431,47.10745763],[2.40566266,47.1082352],[2.40597086,47.10838894],[2.40676139,47.10869191],[2.40715471,47.1089001],[2.40754308,47.10895971],[2.40764619,47.10881709],[2.40779108,47.10895198],[2.40922256,47.10985423],[2.40940073,47.10972099],[2.40998385,47.10994004],[2.41032923,47.10959068],[2.40831114,47.1083073],[2.40985068,47.10680621],[2.41147073,47.10625626]]]]}},{"type":"Feature","properties":{"code":"180331003","nom":"Chancellerie 3","commune":"18033"},"geometry":{"type":"MultiPolygon","coordinates":[[[[2.39975196,47.10470688],[2.4010119,47.10524011],[2.40284717,47.10585912],[2.40460883,47.10646063],[2.40533143,47.10574588],[2.40634258,47.10624716],[2.40713423,47.10548684],[2.40768123,47.10574803],[2.40790368,47.1055439],[2.40852257,47.10490243],[2.4085027,47.10467004],[2.40832915,47.1042631],[2.40896617,47.10413131],[2.40981693,47.10386645],[2.40933279,47.10316352],[2.40885522,47.10246423],[2.40819463,47.10270394],[2.40770548,47.10294002],[2.40565178,47.10455729],[2.40527275,47.10437167],[2.40495892,47.10413237],[2.40207078,47.10274176],[2.40103807,47.10371598],[2.40095148,47.10367682],[2.40062637,47.10374266],[2.40062037,47.10392629],[2.400521,47.10396899],[2.39975196,47.10470688]]]]}},{"type":"Feature","properties":{"code":"180331004","nom":"Chancellerie 4","commune":"18033"},"geometry":{"type":"MultiPolygon","coordinates":[[[[2.40586353,47.0981453],[2.40452073,47.09855884],[2.40202988,47.09941481],[2.40041307,47.09873479],[2.39819061,47.10105421],[2.39827991,47.10120413],[2.39823803,47.10153074],[2.39817188,47.10166904],[2.3982176,47.10206183],[2.39891603,47.10434511],[2.39975196,47.10470688],[2.400521,47.10396899],[2.40062037,47.10392629],[2.40062637,47.10374266],[2.40095148,47.10367682],[2.40103807,47.10371598],[2.40207078,47.10274176],[2.40495892,47.10413237],[2.40527275,47.10437167],[2.40565178,47.10455729],[2.40770548,47.10294002],[2.40819463,47.10270394],[2.40885522,47.10246423],[2.40586353,47.0981453]]]]}},{"type":"Feature","properties":{"code":"180331101","nom":"Pressavois 1","commune":"18033"},"geometry":{"type":"MultiPolygon","coordinates":[[[[2.40981693,47.10386645],[2.41147073,47.10625626],[2.41447727,47.11062642],[2.41538191,47.11026366],[2.41611035,47.11009718],[2.41812457,47.10944019],[2.41965302,47.10857905],[2.41993999,47.10850396],[2.42012465,47.10850038],[2.42022809,47.10844598],[2.4202579,47.10837141],[2.42021796,47.10828477],[2.42009851,47.10823286],[2.41972822,47.10771871],[2.41813103,47.10591002],[2.41668499,47.10464408],[2.41598467,47.10441276],[2.41536192,47.10396034],[2.41345824,47.10453142],[2.41292528,47.10467547],[2.41281982,47.10467223],[2.41146041,47.10273231],[2.41132552,47.10264789],[2.40933279,47.10316352],[2.40981693,47.10386645]]]]}},{"type":"Feature","properties":{"code":"180331102","nom":"Pressavois 2","commune":"18033"},"geometry":{"type":"MultiPolygon","coordinates":[[[[2.41668463,47.09870548],[2.4154867,47.1002345],[2.41452805,47.10109397],[2.41405911,47.10141571],[2.41309755,47.10193213],[2.41304414,47.10199308],[2.41294126,47.10199616],[2.41248704,47.10217572],[2.41156384,47.10255817],[2.41143229,47.10265113],[2.41132552,47.10264789],[2.41146041,47.10273231],[2.41281982,47.10467223],[2.41292528,47.10467547],[2.41345824,47.10453142],[2.41536192,47.10396034],[2.41598467,47.10441276],[2.41668499,47.10464408],[2.41813103,47.10591002],[2.41972822,47.10771871],[2.42009851,47.10823286],[2.42021796,47.10828477],[2.4202579,47.10837141],[2.42041387,47.10821553],[2.42147713,47.10768786],[2.42275456,47.10673809],[2.42478659,47.10463964],[2.42548384,47.10503835],[2.42731453,47.1025139],[2.4226817,47.10085856],[2.41948463,47.09984679],[2.41668463,47.09870548]]]]}},{"type":"Feature","properties":{"code":"180331301","nom":"Val d'Auron 1","commune":"18033"},"geometry":{"type":"MultiPolygon","coordinates":[[[[2.41837015,47.0427982],[2.41648439,47.04374216],[2.41554003,47.04410563],[2.41502788,47.04420748],[2.41375938,47.04482229],[2.41350969,47.0450128],[2.41268317,47.04531562],[2.41227597,47.04557555],[2.41162799,47.04556955],[2.41087807,47.04573139],[2.41004709,47.04571635],[2.40962452,47.04593568],[2.40922629,47.04597596],[2.40887031,47.04624784],[2.40879073,47.04677864],[2.40839745,47.04732764],[2.40840958,47.04826407],[2.40863895,47.04884957],[2.40864765,47.04913773],[2.40856351,47.04936329],[2.40825601,47.04965613],[2.4073565,47.05035919],[2.40702452,47.05048083],[2.40642525,47.05095134],[2.40610931,47.05188968],[2.40581227,47.05242656],[2.4057534,47.05262794],[2.40544107,47.0538346],[2.40552209,47.05413393],[2.4047617,47.05559038],[2.4113748,47.05719087],[2.41093008,47.05810335],[2.41067813,47.05837307],[2.41009478,47.05882837],[2.40992325,47.0590922],[2.40997177,47.05947509],[2.41040837,47.06027233],[2.41042044,47.06061452],[2.41010531,47.06111891],[2.40987397,47.0613095],[2.40933351,47.0614535],[2.40841887,47.06159737],[2.40796969,47.06170762],[2.40765716,47.06185187],[2.40684899,47.06237623],[2.40545978,47.06289849],[2.4050266,47.06310964],[2.40469582,47.06335374],[2.40405018,47.06407068],[2.40373666,47.06430226],[2.40337968,47.06441296],[2.40301587,47.06442548],[2.40245563,47.06432895],[2.40202372,47.06418536],[2.40159135,47.06479626],[2.40158529,47.06486736],[2.40165995,47.0650271],[2.40201714,47.06537379],[2.40254341,47.06544493],[2.40273728,47.06542973],[2.4032545,47.06512809],[2.40347894,47.06520757],[2.40391116,47.06544299],[2.40399277,47.06545062],[2.40596842,47.06492869],[2.4079272,47.06533939],[2.40775717,47.06594445],[2.40761275,47.06625703],[2.40757119,47.06656204],[2.41051091,47.0669264],[2.41081052,47.0657953],[2.41114416,47.06516676],[2.41177419,47.06454513],[2.41197429,47.0644399],[2.41227205,47.06444232],[2.41432504,47.06467423],[2.41589662,47.06495139],[2.41726848,47.06529954],[2.41869031,47.06578028],[2.42057764,47.06414483],[2.42238445,47.0623892],[2.42423184,47.06040056],[2.42563038,47.05897867],[2.42695016,47.05789491],[2.42717275,47.05777716],[2.42741426,47.05773785],[2.42710754,47.05759047],[2.42693083,47.0573582],[2.42692054,47.05708715],[2.42703444,47.05690674],[2.42518831,47.05582976],[2.42451742,47.05536545],[2.42412571,47.05503667],[2.42360575,47.05450467],[2.42305145,47.05373571],[2.42276423,47.05312294],[2.42254148,47.0522719],[2.42244119,47.05118018],[2.42249024,47.05028998],[2.42228879,47.04917344],[2.42198088,47.0481581],[2.42153582,47.04703674],[2.42109779,47.04612159],[2.42052051,47.04529578],[2.41925493,47.04380655],[2.41911515,47.04357715],[2.41847904,47.04283837],[2.41837015,47.0427982]]]]}},{"type":"Feature","properties":{"code":"180331302","nom":"Val d'Auron 2","commune":"18033"},"geometry":{"type":"MultiPolygon","coordinates":[[[[2.40864765,47.04913773],[2.40686005,47.04914477],[2.40654388,47.04938714],[2.40614883,47.04949495],[2.40556631,47.04952077],[2.40453139,47.0501961],[2.40434867,47.0500421],[2.40382221,47.05024017],[2.40326878,47.04930274],[2.40287494,47.04941956],[2.40091548,47.04876926],[2.40188899,47.04805042],[2.4008116,47.04732906],[2.40204315,47.04661966],[2.40110029,47.04612229],[2.40003144,47.04594027],[2.38967138,47.03852291],[2.38802854,47.04646974],[2.38776818,47.04643055],[2.38648449,47.05669314],[2.38965132,47.0571862],[2.39072022,47.05749706],[2.39115103,47.05749753],[2.39143911,47.05753686],[2.39308623,47.05809654],[2.39425624,47.05855825],[2.39450231,47.0587027],[2.39350586,47.06049817],[2.39330257,47.06053311],[2.39252284,47.06039397],[2.39233178,47.06039476],[2.39221911,47.06045539],[2.39203344,47.06079745],[2.39192229,47.06083918],[2.39060293,47.06053331],[2.39049897,47.06495437],[2.39190937,47.06514277],[2.39366794,47.06530327],[2.39505317,47.065505],[2.39520851,47.06540048],[2.39541728,47.06534845],[2.39561608,47.06536389],[2.39574527,47.06547621],[2.39649424,47.06542791],[2.397361,47.06533249],[2.39774599,47.06519404],[2.3980514,47.06498315],[2.39819331,47.06478222],[2.39831752,47.06427867],[2.3984269,47.06404065],[2.39920159,47.06321816],[2.39929467,47.06302417],[2.39938052,47.06229533],[2.39954384,47.06194595],[2.39990302,47.0613995],[2.39996853,47.06131431],[2.40028087,47.06130693],[2.40104262,47.06093273],[2.40086076,47.06129193],[2.40083426,47.06178068],[2.40017418,47.0632007],[2.40048298,47.06327613],[2.40084239,47.06342115],[2.40156765,47.06396332],[2.40202372,47.06418536],[2.40245563,47.06432895],[2.40301587,47.06442548],[2.40337968,47.06441296],[2.40373666,47.06430226],[2.40405018,47.06407068],[2.40469582,47.06335374],[2.4050266,47.06310964],[2.40545978,47.06289849],[2.40684899,47.06237623],[2.40765716,47.06185187],[2.40796969,47.06170762],[2.40841887,47.06159737],[2.40933351,47.0614535],[2.40987397,47.0613095],[2.41010531,47.06111891],[2.41042044,47.06061452],[2.41040837,47.06027233],[2.40997177,47.05947509],[2.40992325,47.0590922],[2.41009478,47.05882837],[2.41067813,47.05837307],[2.41093008,47.05810335],[2.4113748,47.05719087],[2.4047617,47.05559038],[2.40552209,47.05413393],[2.40544107,47.0538346],[2.4057534,47.05262794],[2.40581227,47.05242656],[2.40610931,47.05188968],[2.40642525,47.05095134],[2.40702452,47.05048083],[2.4073565,47.05035919],[2.40825601,47.04965613],[2.40856351,47.04936329],[2.40864765,47.04913773]]]]}},{"type":"Feature","properties":{"code":"180331401","nom":"Aéroport","commune":"18033"},"geometry":{"type":"MultiPolygon","coordinates":[[[[2.38437839,47.06323197],[2.37770429,47.06269743],[2.37450032,47.05709256],[2.37039226,47.05067595],[2.36935099,47.0486985],[2.36903941,47.04830784],[2.36907433,47.04813787],[2.36832076,47.04544619],[2.36717952,47.04189975],[2.36269558,47.03770915],[2.36214071,47.03696419],[2.36116608,47.03530124],[2.35814439,47.02815724],[2.35781975,47.02843905],[2.35379409,47.03000663],[2.35332639,47.02958625],[2.34956114,47.03192765],[2.3501185,47.03310305],[2.35012293,47.03339119],[2.34990393,47.03375281],[2.34959315,47.03407969],[2.34610946,47.03575179],[2.34042364,47.03094935],[2.33988179,47.03035472],[2.33800712,47.03654567],[2.33807931,47.03731769],[2.33679393,47.03935504],[2.33570428,47.04196072],[2.33410701,47.04428075],[2.33390534,47.04439933],[2.33307161,47.04556949],[2.33129681,47.04763455],[2.33008817,47.04939135],[2.32864989,47.05096493],[2.32714203,47.05261821],[2.3266276,47.05362181],[2.32880374,47.05448261],[2.3307021,47.05490869],[2.3318847,47.05526307],[2.33608222,47.05695742],[2.3428847,47.05908513],[2.3422077,47.05993301],[2.34280774,47.06194241],[2.34395952,47.06279169],[2.34421881,47.06313979],[2.34431166,47.06417302],[2.34502918,47.06487306],[2.34506035,47.06523608],[2.34488396,47.06543856],[2.34458092,47.06554488],[2.34396075,47.06561609],[2.34361253,47.06553759],[2.34319591,47.06588186],[2.34288095,47.06620869],[2.34266633,47.06835841],[2.34153839,47.06878686],[2.34090968,47.0691227],[2.34037134,47.0692871],[2.33995152,47.07021206],[2.33925995,47.07115888],[2.33844485,47.07121544],[2.3372247,47.0718477],[2.33673689,47.07175846],[2.33601173,47.07339294],[2.33370757,47.0734373],[2.32401647,47.07392574],[2.32472034,47.07496885],[2.32585687,47.07587764],[2.32640069,47.07623285],[2.32837997,47.0771006],[2.32892707,47.07751163],[2.33029216,47.07891779],[2.33070484,47.07954322],[2.33147737,47.07974126],[2.3346848,47.08107428],[2.33491981,47.0812557],[2.33788372,47.08117998],[2.3381883,47.0845013],[2.33805769,47.08483278],[2.33682996,47.08541277],[2.3357004,47.08583304],[2.33462876,47.08647153],[2.33156907,47.08797636],[2.33126451,47.0879809],[2.33108916,47.08777011],[2.33084419,47.08764624],[2.33037226,47.08764711],[2.32997798,47.08755209],[2.3298548,47.0875991],[2.32953937,47.0879475],[2.33005827,47.08851683],[2.33007588,47.0886907],[2.32994277,47.08879436],[2.32924615,47.08894788],[2.32888571,47.08888727],[2.32860589,47.08912694],[2.32862146,47.08925308],[2.32876896,47.08947632],[2.32918068,47.08965428],[2.32969406,47.08971397],[2.33028405,47.08954903],[2.33046756,47.08942134],[2.33067838,47.08942887],[2.33118333,47.08984955],[2.33140954,47.08989227],[2.33185331,47.08971837],[2.33218279,47.08972568],[2.33287406,47.09021765],[2.33327077,47.09033158],[2.33355918,47.09024862],[2.33377788,47.08983302],[2.33369084,47.08930221],[2.33385839,47.08918433],[2.33417513,47.08915555],[2.33503618,47.08956386],[2.33537994,47.08958834],[2.3356047,47.08974899],[2.33615583,47.0898485],[2.33625124,47.09012995],[2.33681967,47.09043033],[2.33702346,47.09036757],[2.33707447,47.08997081],[2.33681017,47.08980903],[2.33654707,47.08976431],[2.33580883,47.08901639],[2.33607141,47.08867486],[2.33633585,47.08850352],[2.33766455,47.08797273],[2.33800635,47.08740477],[2.33811106,47.08692819],[2.33821596,47.08686576],[2.33855859,47.08687403],[2.3393228,47.08711699],[2.3390638,47.08759899],[2.33925299,47.08775853],[2.33959102,47.08749666],[2.33962328,47.08712321],[2.34005978,47.08700055],[2.34031089,47.0870551],[2.34050795,47.08732543],[2.34096988,47.08749553],[2.34322213,47.08743272],[2.34352586,47.08760461],[2.34414388,47.08762252],[2.34426263,47.08750525],[2.34426195,47.08734408],[2.34357705,47.0870818],[2.3434832,47.08634478],[2.34353515,47.08597504],[2.34376001,47.08569541],[2.34385039,47.08530877],[2.34435139,47.08508383],[2.34482559,47.08500278],[2.34578697,47.08529094],[2.34595947,47.08584923],[2.34680245,47.08601155],[2.34694678,47.08595745],[2.34702529,47.08567878],[2.34665519,47.08521842],[2.34662957,47.08494007],[2.34751072,47.08466954],[2.34834004,47.08465171],[2.34898648,47.08471477],[2.34948717,47.08484094],[2.35007949,47.08512968],[2.35187081,47.08546206],[2.35217609,47.08561593],[2.35433548,47.08570544],[2.35534833,47.08555263],[2.35580947,47.08557051],[2.35781248,47.08617318],[2.35831422,47.08676839],[2.35853845,47.08686687],[2.35978974,47.08683959],[2.3604883,47.0869569],[2.36212053,47.08659588],[2.36289761,47.08665058],[2.36358296,47.08721797],[2.36525774,47.08749728],[2.36689065,47.0881995],[2.36718051,47.08810025],[2.36741769,47.08765858],[2.36769378,47.08772131],[2.36835341,47.08812647],[2.36876168,47.08804587],[2.36972107,47.08727951],[2.37078815,47.08688377],[2.37106477,47.08690148],[2.37164463,47.08725307],[2.37188058,47.08725345],[2.37418569,47.08683469],[2.37443066,47.08810279],[2.37393342,47.08858088],[2.37144411,47.0886232],[2.37064257,47.08896727],[2.37025271,47.09063168],[2.37119334,47.09068451],[2.37143151,47.09106125],[2.37178725,47.09107849],[2.3725772,47.0913934],[2.37518887,47.09160922],[2.37701657,47.0916776],[2.37709546,47.08598877],[2.37699355,47.08556777],[2.37679737,47.08520657],[2.37637498,47.08480094],[2.37585256,47.08449741],[2.37551663,47.08436684],[2.3750882,47.08425649],[2.36986474,47.08344484],[2.36909311,47.08315342],[2.36856176,47.08282909],[2.3682594,47.08253573],[2.36801272,47.08221476],[2.36549191,47.07734089],[2.36531119,47.07690683],[2.36523993,47.07657872],[2.36527443,47.07588654],[2.36542438,47.07535166],[2.36561031,47.07500605],[2.36609112,47.07446398],[2.37327094,47.06833846],[2.37538782,47.06931149],[2.37530724,47.06921472],[2.37454916,47.06867851],[2.37461594,47.06860145],[2.37456974,47.06849405],[2.37910061,47.06558876],[2.38359537,47.06360955],[2.38437839,47.06323197]]]]}},{"type":"Feature","properties":{"code":"180331501","nom":"Asnières","commune":"18033"},"geometry":{"type":"MultiPolygon","coordinates":[[[[2.39162659,47.1035426],[2.39142076,47.10378731],[2.39140427,47.10396279],[2.39244407,47.10612006],[2.39199036,47.10694688],[2.39182887,47.10723504],[2.39164242,47.10728087],[2.39063934,47.10735932],[2.38988288,47.10720138],[2.38973657,47.10742929],[2.38903408,47.10797839],[2.38787381,47.10958745],[2.38790552,47.1106275],[2.38780811,47.11142468],[2.38768992,47.11161312],[2.38798095,47.11223139],[2.38836111,47.11266556],[2.38856297,47.11335628],[2.38826105,47.11450981],[2.38818085,47.11565011],[2.38769475,47.1166451],[2.38737587,47.11812716],[2.38699186,47.11849246],[2.38602912,47.11975772],[2.38563323,47.12070006],[2.3850684,47.12141912],[2.38490825,47.12262291],[2.38460828,47.12324885],[2.38490495,47.12337467],[2.38494696,47.12350814],[2.38478393,47.12380799],[2.3843988,47.12403462],[2.38485345,47.12441968],[2.38545153,47.12460472],[2.38642195,47.12510685],[2.38832486,47.12632067],[2.38876202,47.12650665],[2.39014948,47.1268822],[2.39211889,47.12770916],[2.39244526,47.12789635],[2.39285363,47.12829823],[2.39353129,47.12810011],[2.39398839,47.12827627],[2.39398556,47.12864539],[2.39422655,47.12938672],[2.3962147,47.12949705],[2.39616611,47.129242],[2.39867727,47.12988981],[2.39904135,47.1298926],[2.40029746,47.1301116],[2.40038888,47.12995722],[2.40044655,47.12916163],[2.4023531,47.12877895],[2.4027904,47.12836346],[2.40323963,47.12818121],[2.40363018,47.12948599],[2.40582976,47.12884818],[2.4060496,47.12793367],[2.40638333,47.12733667],[2.40708534,47.12671815],[2.40746814,47.12621592],[2.40863519,47.12649199],[2.40946089,47.12649981],[2.41073776,47.12626504],[2.4117595,47.12619821],[2.41178258,47.126138],[2.41203602,47.12624373],[2.41348733,47.12646357],[2.41413979,47.12626791],[2.41442862,47.1257886],[2.41516935,47.12560237],[2.41757283,47.12535521],[2.41760771,47.12554535],[2.41848159,47.12548852],[2.42059084,47.12573589],[2.42087147,47.12429498],[2.42189918,47.12403632],[2.42302877,47.12399424],[2.42345938,47.12406301],[2.42042372,47.11956512],[2.41912303,47.11750135],[2.41876531,47.11716103],[2.41853798,47.11708336],[2.41847111,47.11692457],[2.41803306,47.11718436],[2.41721005,47.11755025],[2.41610258,47.11811997],[2.41560105,47.11729904],[2.41517497,47.11681882],[2.41462233,47.11633434],[2.41379765,47.11576206],[2.40009646,47.10811283],[2.39577293,47.10571524],[2.39162659,47.1035426]]]]}}]}